{"type": "FeatureCollection", "features": [ {"type": "Feature", "properties": {"norad_id": 66437, "name": "STARLINK-35474", "group": "last-30-days", "lat": 34.02077013198531, "lon": -135.2760402139841, "alt_km": 410.65119705504276, "timestamp": "2025-12-05T05:43:13.895810+00:00", "meta": {"OBJECT_NAME": "STARLINK-35474", "OBJECT_ID": "2025-259R", "EPOCH": "2025-12-04T18:00:02.000160", "MEAN_MOTION": 15.50566117, "ECCENTRICITY": 0.0001431, "INCLINATION": 43.0007, "RA_OF_ASC_NODE": 93.9988, "ARG_OF_PERICENTER": 279.9412, "MEAN_ANOMALY": 355.739, "EPHEMERIS_TYPE": 0, "CLASSIFICATION_TYPE": "U", "NORAD_CAT_ID": 66437, "ELEMENT_SET_NO": 999, "REV_AT_EPOCH": 499, "BSTAR": -0.00056154, "MEAN_MOTION_DOT": -0.0003313, "MEAN_MOTION_DDOT": 0}, "tle": {"line1": "1 66437U 25259R   25338.75002315 -.00033130  00000+0 -56154-3 0  9998", "line2": "2 66437  43.0007  93.9988 0001431 279.9412 355.7390 15.50566117  4992"}}, "geometry": {"type": "Point", "coordinates": [-135.2760402139841, 34.02077013198531]}}, {"type": "Feature", "properties": {"norad_id": 66438, "name": "STARLINK-34681", "group": "last-30-days", "lat": 33.10607211280724, "lon": -133.26701696395335, "alt_km": 410.595185089036, "timestamp": "2025-12-05T05:43:13.895820+00:00", "meta": {"OBJECT_NAME": "STARLINK-34681", "OBJECT_ID": "2025-259S", "EPOCH": "2025-12-04T18:00:02.000160", "MEAN_MOTION": 15.5053682, "ECCENTRICITY": 0.0001519, "INCLINATION": 43.0007, "RA_OF_ASC_NODE": 93.9939, "ARG_OF_PERICENTER": 263.2501, "MEAN_ANOMALY": 14.346, "EPHEMERIS_TYPE": 0, "CLASSIFICATION_TYPE": "U", "NORAD_CAT_ID": 66438, "ELEMENT_SET_NO": 999, "REV_AT_EPOCH": 488, "BSTAR": 0.00042836, "MEAN_MOTION_DOT": 0.0002483, "MEAN_MOTION_DDOT": 0}, "tle": {"line1": "1 66438U 25259S   25338.75002315  .00024830  00000+0  42836-3 0  9996", "line2": "2 66438  43.0007  93.9939 0001519 263.2501  14.3460 15.50536820  4883"}}, "geometry": {"type": "Point", "coordinates": [-133.26701696395335, 33.10607211280724]}}, {"type": "Feature", "properties": {"norad_id": 66439, "name": "STARLINK-35327", "group": "last-30-days", "lat": 35.75479230000563, "lon": -139.44049778738747, "alt_km": 410.2902310090567, "timestamp": "2025-12-05T05:43:13.895830+00:00", "meta": {"OBJECT_NAME": "STARLINK-35327", "OBJECT_ID": "2025-259T", "EPOCH": "2025-12-04T18:00:02.000160", "MEAN_MOTION": 15.50538102, "ECCENTRICITY": 0.000154, "INCLINATION": 43.0007, "RA_OF_ASC_NODE": 94.0102, "ARG_OF_PERICENTER": 269.9839, "MEAN_ANOMALY": 1.8599, "EPHEMERIS_TYPE": 0, "CLASSIFICATION_TYPE": "U", "NORAD_CAT_ID": 66439, "ELEMENT_SET_NO": 999, "REV_AT_EPOCH": 499, "BSTAR": 0.00050827, "MEAN_MOTION_DOT": 0.00029545, "MEAN_MOTION_DDOT": 0}, "tle": {"line1": "1 66439U 25259T   25338.75002315  .00029545  00000+0  50827-3 0  9994", "line2": "2 66439  43.0007  94.0102 0001540 269.9839   1.8599 15.50538102  4990"}}, "geometry": {"type": "Point", "coordinates": [-139.44049778738747, 35.75479230000563]}}, {"type": "Feature", "properties": {"norad_id": 66440, "name": "STARLINK-35405", "group": "last-30-days", "lat": 32.15328492095809, "lon": -131.28670011510602, "alt_km": 410.8337764448488, "timestamp": "2025-12-05T05:43:13.895839+00:00", "meta": {"OBJECT_NAME": "STARLINK-35405", "OBJECT_ID": "2025-259U", "EPOCH": "2025-12-04T18:00:02.000160", "MEAN_MOTION": 15.50532351, "ECCENTRICITY": 0.0001396, "INCLINATION": 43.0005, "RA_OF_ASC_NODE": 93.9899, "ARG_OF_PERICENTER": 276.9355, "MEAN_ANOMALY": 2.5939, "EPHEMERIS_TYPE": 0, "CLASSIFICATION_TYPE": "U", "NORAD_CAT_ID": 66440, "ELEMENT_SET_NO": 999, "REV_AT_EPOCH": 499, "BSTAR": 0.00027555, "MEAN_MOTION_DOT": 0.0001583, "MEAN_MOTION_DDOT": 0}, "tle": {"line1": "1 66440U 25259U   25338.75002315  .00015830  00000+0  27555-3 0  9990", "line2": "2 66440  43.0005  93.9899 0001396 276.9355   2.5939 15.50532351  4997"}}, "geometry": {"type": "Point", "coordinates": [-131.28670011510602, 32.15328492095809]}}, {"type": "Feature", "properties": {"norad_id": 66441, "name": "STARLINK-35426", "group": "last-30-days", "lat": 31.16996675748862, "lon": -129.34881631284176, "alt_km": 411.0691634715449, "timestamp": "2025-12-05T05:43:13.895851+00:00", "meta": {"OBJECT_NAME": "STARLINK-35426", "OBJECT_ID": "2025-259V", "EPOCH": "2025-12-04T18:00:02.000160", "MEAN_MOTION": 15.5054496, "ECCENTRICITY": 0.0001529, "INCLINATION": 43.0007, "RA_OF_ASC_NODE": 93.9841, "ARG_OF_PERICENTER": 279.9401, "MEAN_ANOMALY": 1.497, "EPHEMERIS_TYPE": 0, "CLASSIFICATION_TYPE": "U", "NORAD_CAT_ID": 66441, "ELEMENT_SET_NO": 999, "REV_AT_EPOCH": 499, "BSTAR": 0.00013402, "MEAN_MOTION_DOT": 7.519e-05, "MEAN_MOTION_DDOT": 0}, "tle": {"line1": "1 66441U 25259V   25338.75002315  .00007519  00000+0  13402-3 0  9992", "line2": "2 66441  43.0007  93.9841 0001529 279.9401   1.4970 15.50544960  4992"}}, "geometry": {"type": "Point", "coordinates": [-129.34881631284176, 31.16996675748862]}}, {"type": "Feature", "properties": {"norad_id": 66442, "name": "STARLINK-34724", "group": "last-30-days", "lat": 30.162047870214472, "lon": -127.45732548711092, "alt_km": 411.0301872464979, "timestamp": "2025-12-05T05:43:13.895863+00:00", "meta": {"OBJECT_NAME": "STARLINK-34724", "OBJECT_ID": "2025-259W", "EPOCH": "2025-12-04T18:00:02.000160", "MEAN_MOTION": 15.50558974, "ECCENTRICITY": 0.0001384, "INCLINATION": 43.0007, "RA_OF_ASC_NODE": 93.9801, "ARG_OF_PERICENTER": 269.6881, "MEAN_ANOMALY": 13.6514, "EPHEMERIS_TYPE": 0, "CLASSIFICATION_TYPE": "U", "NORAD_CAT_ID": 66442, "ELEMENT_SET_NO": 999, "REV_AT_EPOCH": 499, "BSTAR": -7.2621e-05, "MEAN_MOTION_DOT": -4.596e-05, "MEAN_MOTION_DDOT": 0}, "tle": {"line1": "1 66442U 25259W   25338.75002315 -.00004596  00000+0 -72621-4 0  9996", "line2": "2 66442  43.0007  93.9801 0001384 269.6881  13.6514 15.50558974  4995"}}, "geometry": {"type": "Point", "coordinates": [-127.45732548711092, 30.162047870214472]}}, {"type": "Feature", "properties": {"norad_id": 66443, "name": "STARLINK-35219", "group": "last-30-days", "lat": 29.12610051990198, "lon": -125.60320612599905, "alt_km": 411.06238616676, "timestamp": "2025-12-05T05:43:13.895874+00:00", "meta": {"OBJECT_NAME": "STARLINK-35219", "OBJECT_ID": "2025-259X", "EPOCH": "2025-12-04T18:00:02.000160", "MEAN_MOTION": 15.50557586, "ECCENTRICITY": 0.0001304, "INCLINATION": 43.0007, "RA_OF_ASC_NODE": 93.9752, "ARG_OF_PERICENTER": 263.2269, "MEAN_ANOMALY": 22.0308, "EPHEMERIS_TYPE": 0, "CLASSIFICATION_TYPE": "U", "NORAD_CAT_ID": 66443, "ELEMENT_SET_NO": 999, "REV_AT_EPOCH": 488, "BSTAR": -2.4981e-05, "MEAN_MOTION_DOT": -1.805e-05, "MEAN_MOTION_DDOT": 0}, "tle": {"line1": "1 66443U 25259X   25338.75002315 -.00001805  00000+0 -24981-4 0  9993", "line2": "2 66443  43.0007  93.9752 0001304 263.2269  22.0308 15.50557586  4884"}}, "geometry": {"type": "Point", "coordinates": [-125.60320612599905, 29.12610051990198]}}, {"type": "Feature", "properties": {"norad_id": 66444, "name": "STARLINK-35360", "group": "last-30-days", "lat": 25.879978486468566, "lon": -120.26993949223505, "alt_km": 411.5706536503658, "timestamp": "2025-12-05T05:43:13.895884+00:00", "meta": {"OBJECT_NAME": "STARLINK-35360", "OBJECT_ID": "2025-259Y", "EPOCH": "2025-12-04T18:00:02.000160", "MEAN_MOTION": 15.50540823, "ECCENTRICITY": 0.0001496, "INCLINATION": 43.0006, "RA_OF_ASC_NODE": 93.9603, "ARG_OF_PERICENTER": 260.6859, "MEAN_ANOMALY": 30.3342, "EPHEMERIS_TYPE": 0, "CLASSIFICATION_TYPE": "U", "NORAD_CAT_ID": 66444, "ELEMENT_SET_NO": 999, "REV_AT_EPOCH": 499, "BSTAR": 0.00019705, "MEAN_MOTION_DOT": 0.00011219, "MEAN_MOTION_DDOT": 0}, "tle": {"line1": "1 66444U 25259Y   25338.75002315  .00011219  00000+0  19705-3 0  9999", "line2": "2 66444  43.0006  93.9603 0001496 260.6859  30.3342 15.50540823  4995"}}, "geometry": {"type": "Point", "coordinates": [-120.26993949223505, 25.879978486468566]}}, {"type": "Feature", "properties": {"norad_id": 66445, "name": "STARLINK-34698", "group": "last-30-days", "lat": 28.067038960412688, "lon": -123.79064319142273, "alt_km": 411.24936270007765, "timestamp": "2025-12-05T05:43:13.895894+00:00", "meta": {"OBJECT_NAME": "STARLINK-34698", "OBJECT_ID": "2025-259Z", "EPOCH": "2025-12-04T18:00:02.000160", "MEAN_MOTION": 15.50563958, "ECCENTRICITY": 0.000157, "INCLINATION": 43.0006, "RA_OF_ASC_NODE": 93.9698, "ARG_OF_PERICENTER": 256.519, "MEAN_ANOMALY": 30.6565, "EPHEMERIS_TYPE": 0, "CLASSIFICATION_TYPE": "U", "NORAD_CAT_ID": 66445, "ELEMENT_SET_NO": 999, "REV_AT_EPOCH": 488, "BSTAR": -0.00025534, "MEAN_MOTION_DOT": -0.00015284, "MEAN_MOTION_DDOT": 0}, "tle": {"line1": "1 66445U 25259Z   25338.75002315 -.00015284  00000+0 -25534-3 0  9995", "line2": "2 66445  43.0006  93.9698 0001570 256.5190  30.6565 15.50563958  4887"}}, "geometry": {"type": "Point", "coordinates": [-123.79064319142273, 28.067038960412688]}}, {"type": "Feature", "properties": {"norad_id": 66446, "name": "STARLINK-34986", "group": "last-30-days", "lat": 26.984670482875973, "lon": -122.01370678842555, "alt_km": 411.63582319836314, "timestamp": "2025-12-05T05:43:13.895904+00:00", "meta": {"OBJECT_NAME": "STARLINK-34986", "OBJECT_ID": "2025-259AA", "EPOCH": "2025-12-04T18:00:02.000160", "MEAN_MOTION": 15.50531021, "ECCENTRICITY": 0.000153, "INCLINATION": 43.0006, "RA_OF_ASC_NODE": 93.9647, "ARG_OF_PERICENTER": 274.8221, "MEAN_ANOMALY": 14.2945, "EPHEMERIS_TYPE": 0, "CLASSIFICATION_TYPE": "U", "NORAD_CAT_ID": 66446, "ELEMENT_SET_NO": 999, "REV_AT_EPOCH": 499, "BSTAR": 0.00027298, "MEAN_MOTION_DOT": 0.00015678, "MEAN_MOTION_DDOT": 0}, "tle": {"line1": "1 66446U 25259AA  25338.75002315  .00015678  00000+0  27298-3 0  9990", "line2": "2 66446  43.0006  93.9647 0001530 274.8221  14.2945 15.50531021  4994"}}, "geometry": {"type": "Point", "coordinates": [-122.01370678842555, 26.984670482875973]}}]}